[{"OBJECT_NAME":"JILIN-1 GAOFEN 2D","OBJECT_ID":"2021-086A","EPOCH":"2026-03-09T21:43:54.183072","MEAN_MOTION":15.09714905,"ECCENTRICITY":0.00351294,"INCLINATION":97.632,"RA_OF_ASC_NODE":191.8747,"ARG_OF_PERICENTER":123.7982,"MEAN_ANOMALY":236.66,"EPHEMERIS_TYPE":0,"CLASSIFICATION_TYPE":"U","NORAD_CAT_ID":49256,"ELEMENT_SET_NO":999,"REV_AT_EPOCH":24573,"BSTAR":0.00040994132,"MEAN_MOTION_DOT":6.64e-5,"MEAN_MOTION_DDOT":0},{"OBJECT_NAME":"STARLINK-3157","OBJECT_ID":"2021-104F","EPOCH":"2026-03-09T17:02:35.253600","MEAN_MOTION":15.08814953,"ECCENTRICITY":0.00011281,"INCLINATION":53.2172,"RA_OF_ASC_NODE":219.0369,"ARG_OF_PERICENTER":88.5414,"MEAN_ANOMALY":271.5707,"EPHEMERIS_TYPE":0,"CLASSIFICATION_TYPE":"U","NORAD_CAT_ID":49413,"ELEMENT_SET_NO":999,"REV_AT_EPOCH":23877,"BSTAR":0.0003291248,"MEAN_MOTION_DOT":4.951e-5,"MEAN_MOTION_DDOT":0}]
